ONEWEB-0560             
1 55145U 23004F   25355.59962110  .00000067  00000+0  13597-3 0  9992
2 55145  87.9165  10.7395 0001713  84.7695 275.3632 13.18686546146304
ONEWEB-0565             
1 55146U 23004G   25355.59302049 -.00000006  00000+0 -48707-4 0  9999
2 55146  87.9155  10.7858 0001275  90.6071 269.5207 13.18686654146296
ONEWEB-0567             
1 55147U 23004H   25355.58642178 -.00000042  00000+0 -13949-3 0  9998
2 55147  87.9166  10.7548 0001426  85.1183 275.0112 13.18686668146298
ONEWEB-0569             
1 55148U 23004J   25355.51431845  .00000011  00000+0 -47134-5 0  9999
2 55148  87.8988 355.5202 0001548  56.4327 303.6950 13.13472095146855
ONEWEB-0570             
1 55149U 23004K   25355.50064257 -.00000002  00000+0 -36826-4 0  9994
2 55149  87.9163  10.7715 0001487 108.9945 251.1348 13.18685430146270
ONEWEB-0571             
1 55150U 23004L   25355.49404763 -.00000015  00000+0 -70968-4 0  9993
2 55150  87.9162  10.7724 0000804  54.9804 305.1403 13.18684533146283
ONEWEB-0572             
1 55151U 23004M   25355.60089975  .00000062  00000+0  12602-3 0  9991
2 55151  87.9111  41.1777 0001614 102.0925 258.0388 13.17648255144098
ONEWEB-0573             
1 55152U 23004N   25355.56331930 -.00000045  00000+0 -14653-3 0  9999
2 55152  87.9155  10.7632 0001008 104.1135 256.0110 13.18684374146289
